NORAD_CAT_ID,OBJECT_NAME,OBJECT_TYPE,EPOCH,MEAN_MOTION,ECCENTRICITY,INCLINATION,RA_OF_ASC_NODE,ARG_OF_PERICENTER,MEAN_ANOMALY,BSTAR,MEAN_MOTION_DOT,MEAN_MOTION_DDOT,TLE_LINE0,TLE_LINE1,TLE_LINE2,SEMIMAJOR_AXIS,PERIOD,APOGEE,PERIGEE,DECAYED
52637.0,STARLINK-3961,PAYLOAD,2023-09-02 12:41:29,15.08836036,0.0001331,53.2167,65.3947,90.4126,269.7019,-1.69e-05,-5.57e-06,0.0,0 STARLINK-3961,1 52637U 22052AR  23245.52881794 -.00000557  00000-0 -16900-4 0  9993,2 52637  53.2167  65.3947 0001331  90.4126 269.7019 15.08836036 73175,6917.893,95.438,540.678,538.837,0.0
52637.0,STARLINK-3961,PAYLOAD,2023-09-02 15:52:15,15.08839542,0.0001343,53.2169,64.7983,108.8786,251.2351,1.015e-05,-1.26e-06,0.0,0 STARLINK-3961,1 52637U 22052AR  23245.66129413 -.00000126  00000-0  10150-4 0  9993,2 52637  53.2169  64.7983 0001343 108.8786 251.2351 15.08839542 72763,6917.882,95.438,540.676,538.818,0.0
52637.0,STARLINK-3961,PAYLOAD,2023-09-02 19:03:01,15.0884419,0.0001207,53.2171,64.2055,92.2293,267.8838,4.8271e-05,4.81e-06,0.0,0 STARLINK-3961,1 52637U 22052AR  23245.79377105  .00000481  00000-0  48271-4 0  9998,2 52637  53.2171  64.2055 0001207  92.2293 267.8838 15.08844190 73218,6917.868,95.437,540.568,538.898,0.0
52637.0,STARLINK-3961,PAYLOAD,2023-09-03 04:35:20,15.08843906,0.0001203,53.2171,62.4214,92.0359,268.0771,8.9613e-05,1.139e-05,0.0,0 STARLINK-3961,1 52637U 22052AR  23246.19120989  .00001139  00000-0  89613-4 0  9995,2 52637  53.2171  62.4214 0001203  92.0359 268.0771 15.08843906 73271,6917.868,95.437,540.566,538.901,0.0
52637.0,STARLINK-3961,PAYLOAD,2023-09-03 18:53:49,15.08838794,0.0001265,53.2172,59.7457,92.7017,267.412,3.0151e-05,1.92e-06,0.0,0 STARLINK-3961,1 52637U 22052AR  23246.78737524  .00000192  00000-0  30151-4 0  9990,2 52637  53.2172  59.7457 0001265  92.7017 267.4120 15.08838794 72938,6917.884,95.438,540.624,538.874,0.0
52637.0,STARLINK-3961,PAYLOAD,2023-09-04 04:26:07,15.08840225,0.0001437,53.2188,57.9616,93.0843,267.0314,6.303e-05,7.15e-06,0.0,0 STARLINK-3961,1 52637U 22052AR  23247.18481394  .00000715  00000-0  63030-4 0  9999,2 52637  53.2188  57.9616 0001437  93.0843 267.0314 15.08840225 73422,6917.88,95.438,540.739,538.751,0.0
52637.0,STARLINK-3961,PAYLOAD,2023-09-04 13:58:27,15.08831746,0.0001472,53.2174,56.1753,84.4203,275.6957,-2.0838e-05,-6.19e-06,0.0,0 STARLINK-3961,1 52637U 22052AR  23247.58226425 -.00000619  00000-0 -20838-4 0  9999,2 52637  53.2174  56.1753 0001472  84.4203 275.6957 15.08831746 73058,6917.906,95.438,540.789,538.752,0.0
52637.0,STARLINK-3961,PAYLOAD,2023-09-05 04:16:55,15.08839685,0.000134,53.2172,53.5015,90.8702,269.2444,4.5473e-05,4.36e-06,0.0,0 STARLINK-3961,1 52637U 22052AR  23248.17841822  .00000436  00000-0  45473-4 0  9996,2 52637  53.2172  53.5015 0001340  90.8702 269.2444 15.08839685 73147,6917.881,95.438,540.673,538.819,0.0
52637.0,STARLINK-3961,PAYLOAD,2023-09-06 04:07:41,15.08871031,0.0001217,53.2181,49.0395,89.2928,270.8203,-0.00025719,-4.382e-05,0.0,0 STARLINK-3961,1 52637U 22052AR  23249.17200310 -.00004382  00000-0 -25719-3 0  9994,2 52637  53.2181  49.0395 0001217  89.2928 270.8203 15.08871031 73291,6917.786,95.436,540.492,538.809,0.0
52637.0,STARLINK-3961,PAYLOAD,2023-09-06 13:40:02,15.08825394,0.0001276,53.218,47.2557,85.2232,274.8906,3.5258e-05,2.73e-06,0.0,0 STARLINK-3961,1 52637U 22052AR  23249.56946933  .00000273  00000-0  35258-4 0  9998,2 52637  53.2180  47.2557 0001276  85.2232 274.8906 15.08825394 73351,6917.925,95.438,540.673,538.907,0.0
52637.0,STARLINK-3961,PAYLOAD,2023-09-06 20:01:34,15.08834823,0.0001341,53.2189,46.0636,91.6363,268.4782,4.2489e-05,3.88e-06,0.0,0 STARLINK-3961,1 52637U 22052AR  23249.83442494  .00000388  00000-0  42489-4 0  9992,2 52637  53.2189  46.0636 0001341  91.6363 268.4782 15.08834823 73824,6917.896,95.438,540.689,538.834,0.0
52637.0,STARLINK-3961,PAYLOAD,2023-09-07 05:33:52,15.0884123,0.0001197,53.2184,44.281,89.1729,270.94,8.696e-05,1.096e-05,0.0,0 STARLINK-3961,1 52637U 22052AR  23250.23186082  .00001096  00000-0  86960-4 0  9995,2 52637  53.2184  44.2810 0001197  89.1729 270.9400 15.08841230 73454,6917.877,95.437,540.57,538.914,0.0
52637.0,STARLINK-3961,PAYLOAD,2023-09-07 11:55:24,15.08849507,0.0001366,53.2179,43.0921,88.4544,271.6605,0.00012213,1.657e-05,0.0,0 STARLINK-3961,1 52637U 22052AR  23250.49681465  .00001657  00000-0  12213-3 0  9990,2 52637  53.2179  43.0921 0001366  88.4544 271.6605 15.08849507 73925,6917.851,95.437,540.661,538.771,0.0
52637.0,STARLINK-3961,PAYLOAD,2023-09-08 03:49:16,15.0884091,0.00015,53.2175,40.1185,113.255,246.8601,0.00032255,4.849e-05,0.0,0 STARLINK-3961,1 52637U 22052AR  23251.15921562  .00004849  00000-0  32255-3 0  9993,2 52637  53.2175  40.1185 0001500 113.2550 246.8601 15.08840910 73597,6917.878,95.437,540.78,538.705,0.0
52637.0,STARLINK-3961,PAYLOAD,2023-09-08 13:21:35,15.08843297,0.0002105,53.2154,38.3302,109.9093,250.2126,0.00019887,2.879e-05,0.0,0 STARLINK-3961,1 52637U 22052AR  23251.55665836  .00002879  00000-0  19887-3 0  9993,2 52637  53.2154  38.3302 0002105 109.9093 250.2126 15.08843297 74087,6917.87,95.437,541.192,538.279,0.0
52637.0,STARLINK-3961,PAYLOAD,2023-09-08 16:32:21,15.08842424,0.0001597,53.2167,37.7418,76.1368,283.9802,0.00013053,1.79e-05,0.0,0 STARLINK-3961,1 52637U 22052AR  23251.68914002  .00001790  00000-0  13053-3 0  9999,2 52637  53.2167  37.7418 0001597  76.1368 283.9802 15.08842424 73675,6917.873,95.437,540.843,538.633,0.0
52637.0,STARLINK-3961,PAYLOAD,2023-09-09 13:12:22,15.0884104,0.000147,53.217,33.8748,86.1666,273.9494,-4.1869e-06,-3.55e-06,0.0,0 STARLINK-3961,1 52637U 22052AR  23252.55026027 -.00000355  00000-0 -41869-5 0  9993,2 52637  53.2170  33.8748 0001470  86.1666 273.9494 15.08841040 74236,6917.877,95.437,540.759,538.725,0.0
52637.0,STARLINK-3961,PAYLOAD,2023-09-10 01:55:27,15.0884044,0.0001188,53.2174,31.4954,88.1632,271.9496,0.00016719,2.374e-05,0.0,0 STARLINK-3961,1 52637U 22052AR  23253.08017919  .00002374  00000-0  16719-3 0  9997,2 52637  53.2174  31.4954 0001188  88.1632 271.9496 15.08840440 73887,6917.879,95.438,540.566,538.922,0.0
52637.0,STARLINK-3961,PAYLOAD,2023-09-10 13:03:09,15.08840975,0.0001236,53.2176,29.4143,88.3783,271.7351,0.00013189,1.812e-05,0.0,0 STARLINK-3961,1 52637U 22052AR  23253.54385964  .00001812  00000-0  13189-3 0  9990,2 52637  53.2176  29.4143 0001236  88.3783 271.7351 15.08840975 74386,6917.877,95.437,540.597,538.887,0.0
52637.0,STARLINK-3961,PAYLOAD,2023-09-11 12:53:56,15.08836567,0.0001183,53.2175,24.9545,95.9363,264.1764,6.0442e-05,6.74e-06,0.0,0 STARLINK-3961,1 52637U 22052AR  23254.53746207  .00000674  00000-0  60442-4 0  9991,2 52637  53.2175  24.9545 0001183  95.9363 264.1764 15.08836567 74533,6917.891,95.438,540.574,538.937,0.0
52637.0,STARLINK-3961,PAYLOAD,2023-09-11 16:04:42,15.08840183,0.0001059,53.2177,24.3595,88.7052,271.4061,9.2397e-05,1.183e-05,0.0,0 STARLINK-3961,1 52637U 22052AR  23254.66994036  .00001183  00000-0  92397-4 0  9990,2 52637  53.2177  24.3595 0001059  88.7052 271.4061 15.08840183 74126,6917.88,95.438,540.477,539.012,0.0
52637.0,STARLINK-3961,PAYLOAD,2023-09-12 14:20:06,15.08845583,0.0001083,53.2194,20.1978,84.0288,276.0828,7.7584e-05,9.47e-06,0.0,0 STARLINK-3961,1 52637U 22052AR  23255.59730128  .00000947  00000-0  77584-4 0  9991,2 52637  53.2194  20.1978 0001083  84.0288 276.0828 15.08845583 74694,6917.863,95.437,540.478,538.979,0.0
52637.0,STARLINK-3961,PAYLOAD,2023-09-12 15:55:29,15.08845349,9.68e-05,53.2199,19.9008,85.2465,274.8638,0.00016172,2.287e-05,0.0,0 STARLINK-3961,1 52637U 22052AR  23255.66353978  .00002287  00000-0  16172-3 0  9997,2 52637  53.2199  19.9008 0000968  85.2465 274.8638 15.08845349 74707,6917.864,95.437,540.399,539.059,0.0
52637.0,STARLINK-3961,PAYLOAD,2023-09-13 01:27:48,15.08846077,0.000114,53.2184,18.1147,91.899,268.2133,0.00010256,1.345e-05,0.0,0 STARLINK-3961,1 52637U 22052AR  23256.06097689  .00001345  00000-0  10256-3 0  9997,2 52637  53.2184  18.1147 0001140  91.8990 268.2133 15.08846077 74330,6917.862,95.437,540.515,538.938,0.0
52637.0,STARLINK-3961,PAYLOAD,2023-09-13 12:35:30,15.08851557,0.0001292,53.2192,16.0338,82.1867,277.9272,0.00019639,2.84e-05,0.0,0 STARLINK-3961,1 52637U 22052AR  23256.52465542  .00002840  00000-0  19639-3 0  9990,2 52637  53.2192  16.0338 0001292  82.1867 277.9272 15.08851557 74837,6917.845,95.437,540.604,538.816,0.0
52637.0,STARLINK-3961,PAYLOAD,2023-09-13 15:46:16,15.08858023,0.0001266,53.2191,15.44,71.0614,289.0515,0.00031566,4.742e-05,0.0,0 STARLINK-3961,1 52637U 22052AR  23256.65713192  .00004742  00000-0  31566-3 0  9997,2 52637  53.2191  15.4400 0001266  71.0614 289.0515 15.08858023 74858,6917.825,95.436,540.566,538.815,0.0
52637.0,STARLINK-3961,PAYLOAD,2023-09-14 01:18:36,15.08836239,0.0001479,53.2193,13.6559,66.0013,294.1134,1.1027e-05,-1.12e-06,0.0,0 STARLINK-3961,1 52637U 22052AR  23257.05458360 -.00000112  00000-0  11027-4 0  9994,2 52637  53.2193  13.6559 0001479  66.0013 294.1134 15.08836239 74486,6917.892,95.438,540.78,538.734,0.0
52637.0,STARLINK-3961,PAYLOAD,2023-09-14 07:40:09,15.08815982,0.0001255,53.2196,12.4656,73.0937,287.0193,-0.0002727,-4.622e-05,0.0,0 STARLINK-3961,1 52637U 22052AR  23257.31955503 -.00004622  00000-0 -27270-3 0  9991,2 52637  53.2196  12.4656 0001255  73.0937 287.0193 15.08815982 74522,6917.954,95.439,540.687,538.951,0.0
52637.0,STARLINK-3961,PAYLOAD,2023-09-14 12:26:18,15.08823782,0.0001921,53.2183,11.5719,79.5301,280.5908,-0.00012182,-2.226e-05,0.0,0 STARLINK-3961,1 52637U 22052AR  23257.51827469 -.00002226  00000-0 -12182-3 0  9996,2 52637  53.2183  11.5719 0001921  79.5301 280.5908 15.08823782 74983,6917.93,95.439,541.124,538.466,0.0
52637.0,STARLINK-3961,PAYLOAD,2023-09-14 14:01:42,15.0882173,0.0001371,53.2187,11.2765,70.539,289.575,-0.00021563,-3.716e-05,0.0,0 STARLINK-3961,1 52637U 22052AR  23257.58451532 -.00003716  00000-0 -21563-3 0  9995,2 52637  53.2187  11.2765 0001371  70.5390 289.5750 15.08821730 74562,6917.936,95.439,540.75,538.853,0.0
